[{"OBJECT_NAME":"YAOGAN-35 03B","OBJECT_ID":"2022-088C","EPOCH":"2026-03-09T13:03:21.256992","MEAN_MOTION":15.23107662,"ECCENTRICITY":0.0013847,"INCLINATION":34.988,"RA_OF_ASC_NODE":116.4068,"ARG_OF_PERICENTER":202.6301,"MEAN_ANOMALY":157.3803,"EPHEMERIS_TYPE":0,"CLASSIFICATION_TYPE":"U","NORAD_CAT_ID":53318,"ELEMENT_SET_NO":999,"REV_AT_EPOCH":20113,"BSTAR":0.00044045,"MEAN_MOTION_DOT":0.00010651,"MEAN_MOTION_DDOT":0},{"OBJECT_NAME":"STARLINK-32549","OBJECT_ID":"2024-222E","EPOCH":"2026-03-09T13:28:58.933344","MEAN_MOTION":15.2756648,"ECCENTRICITY":8.13e-5,"INCLINATION":42.998,"RA_OF_ASC_NODE":136.5501,"ARG_OF_PERICENTER":288.805,"MEAN_ANOMALY":71.2714,"EPHEMERIS_TYPE":0,"CLASSIFICATION_TYPE":"U","NORAD_CAT_ID":62118,"ELEMENT_SET_NO":999,"REV_AT_EPOCH":7279,"BSTAR":0.0012142,"MEAN_MOTION_DOT":0.00033288,"MEAN_MOTION_DDOT":0}]
