YAOGAN-35 03B           
1 53318U 22088C   26068.54399603  .00010651  00000+0  44045-3 0  9993
2 53318  34.9880 116.4068 0013847 202.6301 157.3803 15.23107662201134
STARLINK-32549          
1 62118U 24222E   26068.56179321  .00033288  00000+0  12142-2 0  9991
2 62118  42.9980 136.5501 0000813 288.8050  71.2714 15.27566480 72797
